[{"OBJECT_NAME":"STARLINK-31745","OBJECT_ID":"2024-136A","EPOCH":"2026-03-09T07:42:15.243264","MEAN_MOTION":15.30192081,"ECCENTRICITY":0.00011556,"INCLINATION":53.1612,"RA_OF_ASC_NODE":77.697,"ARG_OF_PERICENTER":83.3957,"MEAN_ANOMALY":276.7175,"EPHEMERIS_TYPE":0,"CLASSIFICATION_TYPE":"U","NORAD_CAT_ID":60329,"ELEMENT_SET_NO":999,"REV_AT_EPOCH":9081,"BSTAR":1.0808638e-5,"MEAN_MOTION_DOT":-3.9e-7,"MEAN_MOTION_DDOT":0},{"OBJECT_NAME":"STRIX-4","OBJECT_ID":"2024-137A","EPOCH":"2026-03-09T15:41:49.501824","MEAN_MOTION":15.29026224,"ECCENTRICITY":0.00168396,"INCLINATION":43.0134,"RA_OF_ASC_NODE":129.8162,"ARG_OF_PERICENTER":5.2738,"MEAN_ANOMALY":354.8289,"EPHEMERIS_TYPE":0,"CLASSIFICATION_TYPE":"U","NORAD_CAT_ID":60352,"ELEMENT_SET_NO":999,"REV_AT_EPOCH":8876,"BSTAR":0.00071819834,"MEAN_MOTION_DOT":0.0002053,"MEAN_MOTION_DDOT":0}]
